BEIJING 1               
1 28890U 05043A   24017.58690920  .00000918  00000+0  19183-3 0  9994
2 28890  98.1805 141.7729 0015471 156.6499 203.5408 14.62096312971743
HJ-1A                   
1 33320U 08041A   24017.60337770  .00002496  00000+0  34203-3 0  9996
2 33320  97.6362  32.1664 0021426 142.5898 217.6810 14.79150670827844
HJ-1B                   
1 33321U 08041B   24017.58244609  .00001898  00000+0  25644-3 0  9996
2 33321  97.6344  36.6534 0038465 189.1396 170.9121 14.79662277827860
YAOGAN 4                
1 33446U 08061A   24017.38532494  .00002602  00000+0  35791-3 0  9994
2 33446  97.8698 312.3384 0016585  60.7725 299.5143 14.79059616815112
DEIMOS-1                
1 35681U 09041A   24017.58952762  .00001352  00000+0  21796-3 0  9993
2 35681  97.6754 207.6866 0002339 122.6396 237.5038 14.72942927776997
UK-DMC 2                
1 35683U 09041C   24017.58754887  .00001936  00000+0  31034-3 0  9997
2 35683  97.7562 171.7511 0001221  99.6177 260.5169 14.72763975776641
RISAT 1                 
1 38248U 12017A   24017.60819598  .00012084  00000+0  56110-3 0  9996
2 38248  97.5344  34.8443 0004986  66.8389 293.3370 15.20153529646525
DMC3-FM1                
1 40715U 15032A   24017.60194238  .00001482  00000+0  18749-3 0  9991
2 40715  97.7723 260.7908 0007248  72.7222 287.4784 14.83256979459102
DMC3-FM2                
1 40716U 15032B   24017.62519214  .00001485  00000+0  18782-3 0  9999
2 40716  97.7774 261.7841 0009209  75.8206 284.4030 14.83258461459100
DMC3-FM3                
1 40717U 15032C   24017.57943058  .00001500  00000+0  18971-3 0  9999
2 40717  97.7820 262.9328 0010666  72.7662 287.4718 14.83249986459105
